[{"OBJECT_NAME":"STARLINK-5360","OBJECT_ID":"2022-177AC","EPOCH":"2026-03-09T22:00:01.999584","MEAN_MOTION":15.18143552,"ECCENTRICITY":0.00022076,"INCLINATION":43.001,"RA_OF_ASC_NODE":130.9365,"ARG_OF_PERICENTER":272.5411,"MEAN_ANOMALY":66.9957,"EPHEMERIS_TYPE":0,"CLASSIFICATION_TYPE":"U","NORAD_CAT_ID":54846,"ELEMENT_SET_NO":999,"REV_AT_EPOCH":573,"BSTAR":0.05662677,"MEAN_MOTION_DOT":0.01273882,"MEAN_MOTION_DDOT":0},{"OBJECT_NAME":"BANDWAGON-4 OBJECT M","OBJECT_ID":"2025-248M","EPOCH":"2026-03-09T00:50:26.830464","MEAN_MOTION":15.24295413,"ECCENTRICITY":0.00129441,"INCLINATION":45.4108,"RA_OF_ASC_NODE":294.9904,"ARG_OF_PERICENTER":207.5285,"MEAN_ANOMALY":152.4918,"EPHEMERIS_TYPE":0,"CLASSIFICATION_TYPE":"U","NORAD_CAT_ID":66304,"ELEMENT_SET_NO":999,"REV_AT_EPOCH":1803,"BSTAR":0.00095703617,"MEAN_MOTION_DOT":0.00023645,"MEAN_MOTION_DDOT":0}]
